CCSDS_OMM_VERS,COMMENT,CREATION_DATE,ORIGINATOR,OBJECT_NAME,OBJECT_ID,CENTER_NAME,REF_FRAME,TIME_SYSTEM,MEAN_ELEMENT_THEORY,EPOCH,MEAN_MOTION,ECCENTRICITY,INCLINATION,RA_OF_ASC_NODE,ARG_OF_PERICENTER,MEAN_ANOMALY,EPHEMERIS_TYPE,CLASSIFICATION_TYPE,NORAD_CAT_ID,ELEMENT_SET_NO,REV_AT_EPOCH,BSTAR,MEAN_MOTION_DOT,MEAN_MOTION_DDOT,SEMIMAJOR_AXIS,PERIOD,APOAPSIS,PERIAPSIS,OBJECT_TYPE,RCS_SIZE,COUNTRY_CODE,LAUNCH_DATE,SITE,DECAY_DATE,FILE,GP_ID,TLE_LINE0,TLE_LINE1,TLE_LINE2
"2.0","GENERATED VIA SPACE-TRACK.ORG API","2020-12-17T05:51:21","18 SPCS","STARLINK-1694","2020-070N","EARTH","TEME","UTC","SGP4","2020-12-16T22:00:01.999584","15.48474531","0.00011070","52.9979","92.1958","82.4895","327.1533","0","U","46544","999","177","-0.02170500000000","-0.01063682","0.0000000000000","6799.324","92.994","421.942","420.437","PAYLOAD","","US","2020-10-06","AFETR","","2904134","167927209","0 STARLINK-1694","1 46544U 20070N   20351.91668981 -.01063682  00000-0 -21705-1 0  9995","2 46544  52.9979  92.1958 0001107  82.4895 327.1533 15.48474531  1776"
"2.0","GENERATED VIA SPACE-TRACK.ORG API","2020-12-17T15:06:09","18 SPCS","STARLINK-1694","2020-070N","EARTH","TEME","UTC","SGP4","2020-12-17T14:00:01.000224","15.46874903","0.00014410","52.9994","89.0063","107.8148","58.4093","0","U","46544","999","1210","-0.02163600000000","-0.01007872","0.0000000000000","6804.011","93.090","426.857","424.896","PAYLOAD","","US","2020-10-06","AFETR","","2904560","167937928","0 STARLINK-1694","1 46544U 20070N   20352.58334491 -.01007872  00000-0 -21636-1 0  9997","2 46544  52.9994  89.0063 0001441 107.8148  58.4093 15.46874903 12108"
"2.0","GENERATED VIA SPACE-TRACK.ORG API","2020-12-17T23:07:23","18 SPCS","STARLINK-1694","2020-070N","EARTH","TEME","UTC","SGP4","2020-12-17T14:00:01.000224","15.46874903","0.00014410","52.9994","89.0063","107.8148","58.4093","0","U","46544","999","177","-0.02163600000000","-0.01007872","0.0000000000000","6804.011","93.090","426.857","424.896","PAYLOAD","","US","2020-10-06","AFETR","","2904594","167960217","0 STARLINK-1694","1 46544U 20070N   20352.58334491 -.01007872  00000-0 -21636-1 0  9997","2 46544  52.9994  89.0063 0001441 107.8148  58.4093 15.46874903  1779"
"2.0","GENERATED VIA SPACE-TRACK.ORG API","2020-12-17T23:26:10","18 SPCS","STARLINK-1694","2020-070N","EARTH","TEME","UTC","SGP4","2020-12-17T22:00:00.999936","15.46099882","0.00011910","52.9972","87.4175","84.1141","139.0172","0","U","46544","999","1216","-0.02237500000000","-0.01013950","0.0000000000000","6806.285","93.137","428.960","427.339","PAYLOAD","","US","2020-10-06","AFETR","","2904726","167963702","0 STARLINK-1694","1 46544U 20070N   20352.91667824 -.01013950  00000-0 -22375-1 0  9998","2 46544  52.9972  87.4175 0001191  84.1141 139.0172 15.46099882 12167"
"2.0","GENERATED VIA SPACE-TRACK.ORG API","2020-12-18T03:06:38","18 SPCS","STARLINK-1694","2020-070N","EARTH","TEME","UTC","SGP4","2020-12-17T22:00:00.999936","15.46099882","0.00011910","52.9972","87.4175","84.1141","139.0172","0","U","46544","999","176","-0.02237500000000","-0.01013950","0.0000000000000","6806.285","93.137","428.960","427.339","PAYLOAD","","US","2020-10-06","AFETR","","2904758","167985015","0 STARLINK-1694","1 46544U 20070N   20352.91667824 -.01013950  00000-0 -22375-1 0  9998","2 46544  52.9972  87.4175 0001191  84.1141 139.0172 15.46099882  1761"
"2.0","GENERATED VIA SPACE-TRACK.ORG API","2020-12-18T20:31:37","18 SPCS","STARLINK-1694","2020-070N","EARTH","TEME","UTC","SGP4","2020-12-18T06:00:02.000160","15.45368693","0.00011830","52.9973","85.8283","86.8667","192.2783","0","U","46544","999","181","-0.02449500000000","-0.01075935","0.0000000000000","6808.431","93.181","431.102","429.491","PAYLOAD","","US","2020-10-06","AFETR","","2905225","168017052","0 STARLINK-1694","1 46544U 20070N   20353.25002315 -.01075935  00000-0 -24495-1 0  9990","2 46544  52.9973  85.8283 0001183  86.8667 192.2783 15.45368693  1810"
"2.0","GENERATED VIA SPACE-TRACK.ORG API","2020-12-18T14:56:10","18 SPCS","STARLINK-1694","2020-070N","EARTH","TEME","UTC","SGP4","2020-12-18T12:00:00.999648","15.44785443","0.00012750","52.9972","84.6421","85.6591","144.7848","0","U","46544","999","1225","-0.02495400000000","-0.01074483","0.0000000000000","6810.145","93.216","432.878","431.142","PAYLOAD","","US","2020-10-06","AFETR","","2905181","167994511","0 STARLINK-1694","1 46544U 20070N   20353.50001157 -.01074483  00000-0 -24954-1 0  9998","2 46544  52.9972  84.6421 0001275  85.6591 144.7848 15.44785443 12254"
"2.0","GENERATED VIA SPACE-TRACK.ORG API","2020-12-19T04:57:23","18 SPCS","STARLINK-1694","2020-070N","EARTH","TEME","UTC","SGP4","2020-12-18T22:00:01.999584","15.43789912","0.00011090","52.9980","82.6559","71.1898","317.1051","0","U","46544","999","177","-0.02496300000000","-0.01042046","0.0000000000000","6813.072","93.276","435.693","434.182","PAYLOAD","","US","2020-10-06","AFETR","","2905541","168043646","0 STARLINK-1694","1 46544U 20070N   20353.91668981 -.01042046  00000-0 -24963-1 0  9997","2 46544  52.9980  82.6559 0001109  71.1898 317.1051 15.43789912  1770"
"2.0","GENERATED VIA SPACE-TRACK.ORG API","2020-12-19T07:46:09","18 SPCS","STARLINK-1694","2020-070N","EARTH","TEME","UTC","SGP4","2020-12-19T06:00:04.000320","15.43001854","0.00014360","53.0004","81.0710","56.8545","24.7447","0","U","46544","999","1236","-0.02520900000000","-0.01026129","0.0000000000000","6815.392","93.324","438.236","436.278","PAYLOAD","","US","2020-10-06","AFETR","","2905686","168047784","0 STARLINK-1694","1 46544U 20070N   20354.25004630 -.01026129  00000-0 -25209-1 0  9998","2 46544  53.0004  81.0710 0001436  56.8545  24.7447 15.43001854 12362"
"2.0","GENERATED VIA SPACE-TRACK.ORG API","2020-12-19T20:03:32","18 SPCS","STARLINK-1694","2020-070N","EARTH","TEME","UTC","SGP4","2020-12-19T14:00:01.000224","15.42216943","0.00014080","53.0004","79.4895","90.8506","42.7937","0","U","46544","999","176","-0.02549400000000","-0.01011911","0.0000000000000","6817.704","93.372","440.529","438.609","PAYLOAD","","US","2020-10-06","AFETR","","2905959","168074754","0 STARLINK-1694","1 46544U 20070N   20354.58334491 -.01011911  00000-0 -25494-1 0  9994","2 46544  53.0004  79.4895 0001408  90.8506  42.7937 15.42216943  1763"
"2.0","GENERATED VIA SPACE-TRACK.ORG API","2020-12-19T23:16:09","18 SPCS","STARLINK-1694","2020-070N","EARTH","TEME","UTC","SGP4","2020-12-19T22:00:03.000096","15.41436375","0.00013970","52.9972","77.9110","78.5750","106.5057","0","U","46544","999","1246","-0.02598100000000","-0.01005163","0.0000000000000","6820.006","93.419","442.824","440.918","PAYLOAD","","US","2020-10-06","AFETR","","2906150","168080083","0 STARLINK-1694","1 46544U 20070N   20354.91670139 -.01005163  00000-0 -25981-1 0  9996","2 46544  52.9972  77.9110 0001397  78.5750 106.5057 15.41436375 12462"
"2.0","GENERATED VIA SPACE-TRACK.ORG API","2020-12-20T15:36:09","18 SPCS","STARLINK-1694","2020-070N","EARTH","TEME","UTC","SGP4","2020-12-20T14:00:01.000224","15.39936760","0.00012930","53.0003","74.7599","64.3023","220.4394","0","U","46544","999","1257","-0.02920200000000","-0.01083318","0.0000000000000","6824.433","93.510","447.180","445.415","PAYLOAD","","US","2020-10-06","AFETR","","2906503","168108978","0 STARLINK-1694","1 46544U 20070N   20355.58334491 -.01083318  00000-0 -29202-1 0  9996","2 46544  53.0003  74.7599 0001293  64.3023 220.4394 15.39936760 12578"
"2.0","GENERATED VIA SPACE-TRACK.ORG API","2020-12-20T20:46:18","18 SPCS","STARLINK-1694","2020-070N","EARTH","TEME","UTC","SGP4","2020-12-20T14:00:01.000224","15.39936760","0.00012930","53.0003","74.7599","64.3023","220.4394","0","U","46544","999","181","-0.02920200000000","-0.01083318","0.0000000000000","6824.433","93.510","447.180","445.415","PAYLOAD","","US","2020-10-06","AFETR","","2906543","168130726","0 STARLINK-1694","1 46544U 20070N   20355.58334491 -.01083318  00000-0 -29202-1 0  9996","2 46544  53.0003  74.7599 0001293  64.3023 220.4394 15.39936760  1813"
"2.0","GENERATED VIA SPACE-TRACK.ORG API","2020-12-21T03:33:58","18 SPCS","STARLINK-1694","2020-070N","EARTH","TEME","UTC","SGP4","2020-12-20T22:00:01.999584","15.39124590","0.00010920","52.9966","73.1830","78.7089","254.6289","0","U","46544","999","177","-0.02838700000000","-0.01029597","0.0000000000000","6826.833","93.559","449.444","447.953","PAYLOAD","","US","2020-10-06","AFETR","","2906789","168157414","0 STARLINK-1694","1 46544U 20070N   20355.91668981 -.01029597  00000-0 -28387-1 0  9999","2 46544  52.9966  73.1830 0001092  78.7089 254.6289 15.39124590  1775"
"2.0","GENERATED VIA SPACE-TRACK.ORG API","2020-12-21T07:16:10","18 SPCS","STARLINK-1694","2020-070N","EARTH","TEME","UTC","SGP4","2020-12-21T06:00:00.999648","15.38359784","0.00012550","52.9984","71.6101","62.0055","318.8481","0","U","46544","999","1267","-0.02941400000000","-0.01039521","0.0000000000000","6829.096","93.606","451.818","450.104","PAYLOAD","","US","2020-10-06","AFETR","","2906986","168162760","0 STARLINK-1694","1 46544U 20070N   20356.25001157 -.01039521  00000-0 -29414-1 0  9993","2 46544  52.9984  71.6101 0001255  62.0055 318.8481 15.38359784 12671"
"2.0","GENERATED VIA SPACE-TRACK.ORG API","2020-12-21T21:54:52","18 SPCS","STARLINK-1694","2020-070N","EARTH","TEME","UTC","SGP4","2020-12-21T14:00:01.999872","15.37586267","0.00013320","53.0001","70.0407","78.7572","348.8154","0","U","46544","999","176","-0.03009200000000","-0.01037102","0.0000000000000","6831.386","93.653","454.161","452.341","PAYLOAD","","US","2020-10-06","AFETR","","2907202","168188361","0 STARLINK-1694","1 46544U 20070N   20356.58335648 -.01037102  00000-0 -30092-1 0  9991","2 46544  53.0001  70.0407 0001332  78.7572 348.8154 15.37586267  1764"
